INTELSAT 10 (IS-10)     
1 26766U 01019A   26062.82928310 -.00000297  00000+0  00000+0 0  9994
2 26766   8.8245  60.3264 0005997 265.5847 279.9653  0.99042030 44538
INTELSAT 902 (IS-902)   
1 26900U 01039A   26063.34350089 -.00000292  00000+0  00000+0 0  9991
2 26900   5.8522  73.0613 0004553 272.5991 249.9991  1.00272825 89640
INTELSAT 904 (IS-904)   
1 27380U 02007A   26063.33239102 -.00000234  00000+0  00000+0 0  9997
2 27380   6.6586  70.4418 0006117 305.6990 234.1072  1.00273296 50716
DIRECTV 5 (TEMPO 1)     
1 27426U 02023A   26063.13520759 -.00000067  00000+0  00000+0 0  9999
2 27426   4.6098  76.6238 0003607 274.1465 109.6848  1.00272238 87070
INTELSAT 905 (IS-905)   
1 27438U 02027A   26063.19697682  .00000085  00000+0  00000+0 0  9991
2 27438   6.4902  71.0632 0003165 276.8748 107.7239  1.00273460 50314
GALAXY 3C (G-3C)        
1 27445U 02030A   26063.15225882 -.00000163  00000+0  00000+0 0  9996
2 27445   3.4639  79.4641 0001010  27.1185  15.2928  1.00271638 45448
INTELSAT 906 (IS-906)   
1 27513U 02041A   26063.65095392  .00000005  00000+0  00000+0 0  9994
2 27513   5.5368  74.2075 0003235 258.1198 128.5653  1.00272805 85984
GALAXY 13 (HORIZONS-1)  
1 27954U 03044A   26063.37891897  .00000121  00000+0  00000+0 0  9999
2 27954   1.1468  85.2992 0002180 260.7777 162.4455  1.00272561 45528
INTELSAT 10-02          
1 28358U 04022A   26063.21294724 -.00000024  00000+0  00000+0 0  9997
2 28358   0.0157 124.9797 0001130 261.8470 210.7758  1.00268698 79504
DIRECTV 8               
1 28659U 05019A   26063.36225455 -.00000011  00000+0  00000+0 0  9995
2 28659   0.0149 124.6155 0003297 231.7934 177.0489  1.00272613 76023
GALAXY 28 (G-28)        
1 28702U 05022A   26063.33239102 -.00000211  00000+0  00000+0 0  9991
2 28702   3.0278  80.2510 0002288 263.9656 270.4366  1.00272010 50921
GALAXY 16 (G-16)        
1 29236U 06023A   26063.35114212 -.00000138  00000+0  00000+0 0  9990
2 29236   0.0447 235.6195 0002488 113.6835 200.1768  1.00268895 71921
DIRECTV 9S              
1 29494U 06043A   26063.35669706 -.00000124  00000+0  00000+0 0  9996
2 29494   2.1503  82.2031 0003160 267.9038 199.1954  1.00272252 50332
GALAXY 17 (G-17)        
1 31307U 07016B   26063.34558462 -.00000217  00000+0  00000+0 0  9991
2 31307   2.7065  81.2412 0003335 263.4859 216.7749  1.00272051 68755
DIRECTV 10              
1 31862U 07032A   26063.30044475 -.00000014  00000+0  00000+0 0  9990
2 31862   0.1316 100.8778 0006603 273.1915 306.5204  0.98336708 44537
INTELSAT 11 (IS-11)     
1 32253U 07044B   26063.13078757  .00000059  00000+0  00000+0 0  9997
2 32253   3.2919  79.9641 0005158 205.3432 151.3636  0.99048736 67403
HORIZONS-2              
1 32388U 07063B   26063.34003264 -.00000264  00000+0  00000+0 0  9990
2 32388   2.3319  81.9543 0002822 256.0881 232.6601  1.00271697 66766
