[{"OBJECT_NAME":"INTELSAT 10 (IS-10)","OBJECT_ID":"2001-019A","EPOCH":"2026-03-03T19:54:10.059840","MEAN_MOTION":0.9904203,"ECCENTRICITY":0.0005997,"INCLINATION":8.8245,"RA_OF_ASC_NODE":60.3264,"ARG_OF_PERICENTER":265.5847,"MEAN_ANOMALY":279.9653,"EPHEMERIS_TYPE":0,"CLASSIFICATION_TYPE":"U","NORAD_CAT_ID":26766,"ELEMENT_SET_NO":999,"REV_AT_EPOCH":4453,"BSTAR":0,"MEAN_MOTION_DOT":-2.97e-6,"MEAN_MOTION_DDOT":0},{"OBJECT_NAME":"INTELSAT 902 (IS-902)","OBJECT_ID":"2001-039A","EPOCH":"2026-03-04T08:14:38.476896","MEAN_MOTION":1.00272825,"ECCENTRICITY":0.00045534,"INCLINATION":5.8522,"RA_OF_ASC_NODE":73.0613,"ARG_OF_PERICENTER":272.5991,"MEAN_ANOMALY":249.9991,"EPHEMERIS_TYPE":0,"CLASSIFICATION_TYPE":"U","NORAD_CAT_ID":26900,"ELEMENT_SET_NO":999,"REV_AT_EPOCH":8964,"BSTAR":0,"MEAN_MOTION_DOT":-2.92e-6,"MEAN_MOTION_DDOT":0},{"OBJECT_NAME":"INTELSAT 904 (IS-904)","OBJECT_ID":"2002-007A","EPOCH":"2026-03-04T07:58:38.584128","MEAN_MOTION":1.00273296,"ECCENTRICITY":0.00061171,"INCLINATION":6.6586,"RA_OF_ASC_NODE":70.4418,"ARG_OF_PERICENTER":305.699,"MEAN_ANOMALY":234.1072,"EPHEMERIS_TYPE":0,"CLASSIFICATION_TYPE":"U","NORAD_CAT_ID":27380,"ELEMENT_SET_NO":999,"REV_AT_EPOCH":5071,"BSTAR":0,"MEAN_MOTION_DOT":-2.34e-6,"MEAN_MOTION_DDOT":0},{"OBJECT_NAME":"DIRECTV 5 (TEMPO 1)","OBJECT_ID":"2002-023A","EPOCH":"2026-03-04T03:14:41.935776","MEAN_MOTION":1.00272238,"ECCENTRICITY":0.00036073,"INCLINATION":4.6098,"RA_OF_ASC_NODE":76.6238,"ARG_OF_PERICENTER":274.1465,"MEAN_ANOMALY":109.6848,"EPHEMERIS_TYPE":0,"CLASSIFICATION_TYPE":"U","NORAD_CAT_ID":27426,"ELEMENT_SET_NO":999,"REV_AT_EPOCH":8707,"BSTAR":0,"MEAN_MOTION_DOT":-6.7e-7,"MEAN_MOTION_DDOT":0},{"OBJECT_NAME":"INTELSAT 905 (IS-905)","OBJECT_ID":"2002-027A","EPOCH":"2026-03-04T04:43:38.797248","MEAN_MOTION":1.0027346,"ECCENTRICITY":0.00031656,"INCLINATION":6.4902,"RA_OF_ASC_NODE":71.0632,"ARG_OF_PERICENTER":276.8748,"MEAN_ANOMALY":107.7239,"EPHEMERIS_TYPE":0,"CLASSIFICATION_TYPE":"U","NORAD_CAT_ID":27438,"ELEMENT_SET_NO":999,"REV_AT_EPOCH":5031,"BSTAR":0,"MEAN_MOTION_DOT":8.5e-7,"MEAN_MOTION_DDOT":0},{"OBJECT_NAME":"GALAXY 3C (G-3C)","OBJECT_ID":"2002-030A","EPOCH":"2026-03-04T03:39:15.162048","MEAN_MOTION":1.00271638,"ECCENTRICITY":0.00010102,"INCLINATION":3.4639,"RA_OF_ASC_NODE":79.4641,"ARG_OF_PERICENTER":27.1185,"MEAN_ANOMALY":15.2928,"EPHEMERIS_TYPE":0,"CLASSIFICATION_TYPE":"U","NORAD_CAT_ID":27445,"ELEMENT_SET_NO":999,"REV_AT_EPOCH":4544,"BSTAR":0,"MEAN_MOTION_DOT":-1.63e-6,"MEAN_MOTION_DDOT":0},{"OBJECT_NAME":"INTELSAT 906 (IS-906)","OBJECT_ID":"2002-041A","EPOCH":"2026-03-04T15:37:22.418688","MEAN_MOTION":1.00272805,"ECCENTRICITY":0.0003235,"INCLINATION":5.5368,"RA_OF_ASC_NODE":74.2075,"ARG_OF_PERICENTER":258.1198,"MEAN_ANOMALY":128.5653,"EPHEMERIS_TYPE":0,"CLASSIFICATION_TYPE":"U","NORAD_CAT_ID":27513,"ELEMENT_SET_NO":999,"REV_AT_EPOCH":8598,"BSTAR":0,"MEAN_MOTION_DOT":5.0e-8,"MEAN_MOTION_DDOT":0},{"OBJECT_NAME":"GALAXY 13 (HORIZONS-1)","OBJECT_ID":"2003-044A","EPOCH":"2026-03-04T09:05:38.599008","MEAN_MOTION":1.00272561,"ECCENTRICITY":0.000218,"INCLINATION":1.1468,"RA_OF_ASC_NODE":85.2992,"ARG_OF_PERICENTER":260.7777,"MEAN_ANOMALY":162.4455,"EPHEMERIS_TYPE":0,"CLASSIFICATION_TYPE":"U","NORAD_CAT_ID":27954,"ELEMENT_SET_NO":999,"REV_AT_EPOCH":4552,"BSTAR":0,"MEAN_MOTION_DOT":1.21e-6,"MEAN_MOTION_DDOT":0},{"OBJECT_NAME":"INTELSAT 10-02","OBJECT_ID":"2004-022A","EPOCH":"2026-03-04T05:06:38.641536","MEAN_MOTION":1.00268698,"ECCENTRICITY":0.00011307,"INCLINATION":0.0157,"RA_OF_ASC_NODE":124.9797,"ARG_OF_PERICENTER":261.847,"MEAN_ANOMALY":210.7758,"EPHEMERIS_TYPE":0,"CLASSIFICATION_TYPE":"U","NORAD_CAT_ID":28358,"ELEMENT_SET_NO":999,"REV_AT_EPOCH":7950,"BSTAR":0,"MEAN_MOTION_DOT":-2.4e-7,"MEAN_MOTION_DDOT":0},{"OBJECT_NAME":"DIRECTV 8","OBJECT_ID":"2005-019A","EPOCH":"2026-03-04T08:41:38.793120","MEAN_MOTION":1.00272613,"ECCENTRICITY":0.00032972,"INCLINATION":0.0149,"RA_OF_ASC_NODE":124.6155,"ARG_OF_PERICENTER":231.7934,"MEAN_ANOMALY":177.0489,"EPHEMERIS_TYPE":0,"CLASSIFICATION_TYPE":"U","NORAD_CAT_ID":28659,"ELEMENT_SET_NO":999,"REV_AT_EPOCH":7602,"BSTAR":0,"MEAN_MOTION_DOT":-1.1e-7,"MEAN_MOTION_DDOT":0},{"OBJECT_NAME":"GALAXY 28 (G-28)","OBJECT_ID":"2005-022A","EPOCH":"2026-03-04T07:58:38.584128","MEAN_MOTION":1.0027201,"ECCENTRICITY":0.00022884,"INCLINATION":3.0278,"RA_OF_ASC_NODE":80.251,"ARG_OF_PERICENTER":263.9656,"MEAN_ANOMALY":270.4366,"EPHEMERIS_TYPE":0,"CLASSIFICATION_TYPE":"U","NORAD_CAT_ID":28702,"ELEMENT_SET_NO":999,"REV_AT_EPOCH":5092,"BSTAR":0,"MEAN_MOTION_DOT":-2.11e-6,"MEAN_MOTION_DDOT":0},{"OBJECT_NAME":"GALAXY 16 (G-16)","OBJECT_ID":"2006-023A","EPOCH":"2026-03-04T08:25:38.679168","MEAN_MOTION":1.00268895,"ECCENTRICITY":0.0002488,"INCLINATION":0.0447,"RA_OF_ASC_NODE":235.6195,"ARG_OF_PERICENTER":113.6835,"MEAN_ANOMALY":200.1768,"EPHEMERIS_TYPE":0,"CLASSIFICATION_TYPE":"U","NORAD_CAT_ID":29236,"ELEMENT_SET_NO":999,"REV_AT_EPOCH":7192,"BSTAR":0,"MEAN_MOTION_DOT":-1.38e-6,"MEAN_MOTION_DDOT":0},{"OBJECT_NAME":"DIRECTV 9S","OBJECT_ID":"2006-043A","EPOCH":"2026-03-04T08:33:38.625984","MEAN_MOTION":1.00272252,"ECCENTRICITY":0.00031605,"INCLINATION":2.1503,"RA_OF_ASC_NODE":82.2031,"ARG_OF_PERICENTER":267.9038,"MEAN_ANOMALY":199.1954,"EPHEMERIS_TYPE":0,"CLASSIFICATION_TYPE":"U","NORAD_CAT_ID":29494,"ELEMENT_SET_NO":999,"REV_AT_EPOCH":5033,"BSTAR":0,"MEAN_MOTION_DOT":-1.24e-6,"MEAN_MOTION_DDOT":0},{"OBJECT_NAME":"GALAXY 17 (G-17)","OBJECT_ID":"2007-016B","EPOCH":"2026-03-04T08:17:38.511168","MEAN_MOTION":1.00272051,"ECCENTRICITY":0.00033352,"INCLINATION":2.7065,"RA_OF_ASC_NODE":81.2412,"ARG_OF_PERICENTER":263.4859,"MEAN_ANOMALY":216.7749,"EPHEMERIS_TYPE":0,"CLASSIFICATION_TYPE":"U","NORAD_CAT_ID":31307,"ELEMENT_SET_NO":999,"REV_AT_EPOCH":6875,"BSTAR":0,"MEAN_MOTION_DOT":-2.17e-6,"MEAN_MOTION_DDOT":0},{"OBJECT_NAME":"DIRECTV 10","OBJECT_ID":"2007-032A","EPOCH":"2026-03-04T07:12:38.426400","MEAN_MOTION":0.98336708,"ECCENTRICITY":0.0006603,"INCLINATION":0.1316,"RA_OF_ASC_NODE":100.8778,"ARG_OF_PERICENTER":273.1915,"MEAN_ANOMALY":306.5204,"EPHEMERIS_TYPE":0,"CLASSIFICATION_TYPE":"U","NORAD_CAT_ID":31862,"ELEMENT_SET_NO":999,"REV_AT_EPOCH":4453,"BSTAR":0,"MEAN_MOTION_DOT":-1.4e-7,"MEAN_MOTION_DDOT":0},{"OBJECT_NAME":"INTELSAT 11 (IS-11)","OBJECT_ID":"2007-044B","EPOCH":"2026-03-04T03:08:20.046048","MEAN_MOTION":0.99048736,"ECCENTRICITY":0.00051583,"INCLINATION":3.2919,"RA_OF_ASC_NODE":79.9641,"ARG_OF_PERICENTER":205.3432,"MEAN_ANOMALY":151.3636,"EPHEMERIS_TYPE":0,"CLASSIFICATION_TYPE":"U","NORAD_CAT_ID":32253,"ELEMENT_SET_NO":999,"REV_AT_EPOCH":6740,"BSTAR":0,"MEAN_MOTION_DOT":5.9e-7,"MEAN_MOTION_DDOT":0},{"OBJECT_NAME":"HORIZONS-2","OBJECT_ID":"2007-063B","EPOCH":"2026-03-04T08:09:38.820096","MEAN_MOTION":1.00271697,"ECCENTRICITY":0.00028225,"INCLINATION":2.3319,"RA_OF_ASC_NODE":81.9543,"ARG_OF_PERICENTER":256.0881,"MEAN_ANOMALY":232.6601,"EPHEMERIS_TYPE":0,"CLASSIFICATION_TYPE":"U","NORAD_CAT_ID":32388,"ELEMENT_SET_NO":999,"REV_AT_EPOCH":6676,"BSTAR":0,"MEAN_MOTION_DOT":-2.64e-6,"MEAN_MOTION_DDOT":0}]
